$$SOE
2459580.500000000, A.D. 2022-Jan-01 00:00:00.0000, -6.335608202095199E+07, 2.817648664335495E+08, 8.049242909881032E+07,
2459587.500000000, A.D. 2022-Jan-08 00:00:00.0000, -7.446682981147519E+07, 2.780857058173057E+08, 8.388840404814900E+07,
2459594.500000000, A.D. 2022-Jan-15 00:00:00.0000, -8.544354949319230E+07, 2.739058843397883E+08, 8.713334727773434E+07,
2459601.500000000, A.D. 2022-Jan-22 00:00:00.0000, -9.626648237354979E+07, 2.692329521083761E+08, 9.022142395355119E+07,
2459608.500000000, A.D. 2022-Jan-29 00:00:00.0000, -1.069160706648226E+08, 2.640751325528071E+08, 9.314701001958916E+07,
2459615.500000000, A.D. 2022-Feb-05 00:00:00.0000, -1.173729691232430E+08, 2.584413191470722E+08, 9.590469531480485E+07,
2459622.500000000, A.D. 2022-Feb-12 00:00:00.0000, -1.276180550323592E+08, 2.523410720615072E+08, 9.848928678356238E+07,
2459629.500000000, A.D. 2022-Feb-19 00:00:00.0000, -1.376324379785338E+08, 2.457846170773847E+08, 1.008958121468865E+08,
2459636.500000000, A.D. 2022-Feb-26 00:00:00.0000, -1.473974708333592E+08, 2.387828459862994E+08, 1.031195241335278E+08,
2459643.500000000, A.D. 2022-Mar-05 00:00:00.0000, -1.568947618905048E+08, 2.313473177795630E+08, 1.051559052311835E+08,
2459650.500000000, A.D. 2022-Mar-12 00:00:00.0000, -1.661061880491222E+08, 2.234902604757951E+08, 1.070006729549147E+08,
2459657.500000000, A.D. 2022-Mar-19 00:00:00.0000, -1.750139090892717E+08, 2.152245735231639E+08, 1.086497856506633E+08,
2459664.500000000, A.D. 2022-Mar-26 00:00:00.0000, -1.836003831338965E+08, 2.065638306719620E+08, 1.100994488526477E+08,
2459671.500000000, A.D. 2022-Apr-02 00:00:00.0000, -1.918483833458492E+08, 1.975222831551156E+08, 1.113461222038316E+08,
2459678.500000000, A.D. 2022-Apr-09 00:00:00.0000, -1.997410157028888E+08, 1.881148630652410E+08, 1.123865269328378E+08,
2459685.500000000, A.D. 2022-Apr-16 00:00:00.0000, -2.072617376071979E+08, 1.783571874546959E+08, 1.132176539232652E+08,
2459692.500000000, A.D. 2022-Apr-23 00:00:00.0000, -2.143943787132062E+08, 1.682655641037149E+08, 1.138367725944707E+08,
2459699.500000000, A.D. 2022-Apr-30 00:00:00.0000, -2.211231659590139E+08, 1.578569965656338E+08, 1.142414405972965E+08,
2459706.500000000, A.D. 2022-May-07 00:00:00.0000, -2.274327498380205E+08, 1.471491863578961E+08, 1.144295138885868E+08,
2459713.500000000, A.D. 2022-May-14 00:00:00.0000, -2.333082306133144E+08, 1.361605351487200E+08, 1.143991572968566E+08,
2459720.500000000, A.D. 2022-May-21 00:00:00.0000, -2.387351866108936E+08, 1.249101474968867E+08, 1.141488558252585E+08,
2459727.500000000, A.D. 2022-May-28 00:00:00.0000, -2.436997051657331E+08, 1.134178329812064E+08, 1.136774266546348E+08,
2459734.500000000, A.D. 2022-Jun-04 00:00:00.0000, -2.481884160215863E+08, 1.017041071816769E+08, 1.129840317797147E+08,
2459741.500000000, A.D. 2022-Jun-11 00:00:00.0000, -2.521885271077626E+08, 8.979019126706137E+07, 1.120681912400229E+08,
2459748.500000000, A.D. 2022-Jun-18 00:00:00.0000, -2.556878627108663E+08, 7.769800993583558E+07, 1.109297969100340E+08,
2459755.500000000, A.D. 2022-Jun-25 00:00:00.0000, -2.586749040537131E+08, 6.545018739246057E+07, 1.095691268010936E+08,
2459762.500000000, A.D. 2022-Jul-02 00:00:00.0000, -2.611388321705317E+08, 5.307004098940947E+07, 1.079868598047023E+08,
2459769.500000000, A.D. 2022-Jul-09 00:00:00.0000, -2.630695726890813E+08, 4.058157238899461E+07, 1.061840907908116E+08,
2459776.500000000, A.D. 2022-Jul-16 00:00:00.0000, -2.644578425495962E+08, 2.800945698538529E+07, 1.041623460757311E+08,
2459783.500000000, A.D. 2022-Jul-23 00:00:00.0000, -2.652952008064528E+08, 1.537903130198456E+07, 1.019235993751030E+08,
2459790.500000000, A.D. 2022-Jul-30 00:00:00.0000, -2.655741033499710E+08, 2.716274632173076E+06, 9.947028785698190E+07,
2459797.500000000, A.D. 2022-Aug-06 00:00:00.0000, -2.652879578315108E+08, -9.952214812330030E+06, 9.680532789797506E+07,
2459804.500000000, A.D. 2022-Aug-13 00:00:00.0000, -2.644311794405403E+08, -2.259924688650568E+07, 9.393213069480336E+07,
2459811.500000000, A.D. 2022-Aug-20 00:00:00.0000, -2.629992488839187E+08, -3.519707054978770E+07, 9.085461766640568E+07,
2459818.500000000, A.D. 2022-Aug-27 00:00:00.0000, -2.609887722421308E+08, -4.771741010215645E+07, 8.757723540350205E+07,
2459825.500000000, A.D. 2022-Sep-03 00:00:00.0000, -2.583975421414019E+08, -6.013150713746487E+07, 8.410496993704259E+07,
2459832.500000000, A.D. 2022-Sep-10 00:00:00.0000, -2.552245997722943E+08, -7.241016858889708E+07, 8.044336009755829E+07,
2459839.500000000, A.D. 2022-Sep-17 00:00:00.0000, -2.514702972800573E+08, -8.452382125356857E+07, 7.659850971903168E+07,
2459846.500000000, A.D. 2022-Sep-24 00:00:00.0000, -2.471363599540197E+08, -9.644257320909707E+07, 7.257709841473381E+07,
2459853.500000000, A.D. 2022-Oct-01 00:00:00.0000, -2.422259473948382E+08, -1.081362824723130E+08, 6.838639062040304E+07,
2459860.500000000, A.D. 2022-Oct-08 00:00:00.0000, -2.367437126011114E+08, -1.195746326597139E+08, 6.403424261268979E+07,
2459867.500000000, A.D. 2022-Oct-15 00:00:00.0000, -2.306958591854527E+08, -1.307272146713464E+08, 5.952910737319403E+07,
2459874.500000000, A.D. 2022-Oct-22 00:00:00.0000, -2.240901981101772E+08, -1.415636162265386E+08, 5.488003703233232E+07,
2459881.500000000, A.D. 2022-Oct-29 00:00:00.0000, -2.169362005844398E+08, -1.520535218962824E+08, 5.009668210991477E+07,
2459888.500000000, A.D. 2022-Nov-05 00:00:00.0000, -2.092450440839165E+08, -1.621668208334330E+08, 4.518928723013780E+07,
2459895.500000000, A.D. 2022-Nov-12 00:00:00.0000, -2.010296524366435E+08, -1.718737207680108E+08, 4.016868324198456E+07,
2459902.500000000, A.D. 2022-Nov-19 00:00:00.0000, -1.923047296253668E+08, -1.811448689539564E+08, 3.504627540318660E+07,
2459909.500000000, A.D. 2022-Nov-26 00:00:00.0000, -1.830867859730897E+08, -1.899514800764823E+08, 2.983402727464768E+07,
2459916.500000000, A.D. 2022-Dec-03 00:00:00.0000, -1.733941554924828E+08, -1.982654705847741E+08, 2.454444004036964E+07,
2459923.500000000, A.D. 2022-Dec-10 00:00:00.0000, -1.632470033085866E+08, -2.060595986989193E+08, 1.919052700435291E+07,
2459930.500000000, A.D. 2022-Dec-17 00:00:00.0000, -1.526673220921226E+08, -2.133076092004161E+08, 1.378578304686947E+07,
2459937.500000000, A.D. 2022-Dec-24 00:00:00.0000, -1.416789163908503E+08, -2.199843819854376E+08, 8.344148862240240E+06,
2459944.500000000, A.D. 2022-Dec-31 00:00:00.0000, -1.303073735718785E+08, -2.260660830210356E+08, 2.879969857568145E+06,
2459951.500000000, A.D. 2023-Jan-07 00:00:00.0000, -1.185800204314256E+08, -2.315303153264097E+08, -2.592050240699470E+06,
2459958.500000000, A.D. 2023-Jan-14 00:00:00.0000, -1.065258667559138E+08, -2.363562679103152E+08, -8.056900787957788E+06,
2459965.500000000, A.D. 2023-Jan-21 00:00:00.0000, -9.417553596175042E+07, -2.405248641276025E+08, -1.349932067610599E+07,
2459972.500000000, A.D. 2023-Jan-28 00:00:00.0000, -8.156117882754490E+07, -2.440189078327357E+08, -1.890385994304241E+07,
2459979.500000000, A.D. 2023-Feb-04 00:00:00.0000, -6.871637043577054E+07, -2.468232223997950E+08, -2.425494591945940E+07,
2459986.500000000, A.D. 2023-Feb-11 00:00:00.0000, -5.567599227232414E+07, -2.489247808434108E+08, -2.953695331191047E+07,
2459993.500000000, A.D. 2023-Feb-18 00:00:00.0000, -4.247609996384999E+07, -2.503128258896654E+08, -3.473427773108184E+07,
2460000.500000000, A.D. 2023-Feb-25 00:00:00.0000, -2.915377708291917E+07, -2.509789782112091E+08, -3.983141205280179E+07,
2460007.500000000, A.D. 2023-Mar-04 00:00:00.0000, -1.574697588773423E+07, -2.509173309333249E+08, -4.481302487917873E+07,
2460014.500000000, A.D. 2023-Mar-11 00:00:00.0000, -2.294346207936109E+06, -2.501245286682802E+08, -4.966404028441489E+07,
2460021.500000000, A.D. 2023-Mar-18 00:00:00.0000, 1.116494606086475E+07, -2.485998295705186E+08, -5.436971797467412E+07,
2460028.500000000, A.D. 2023-Mar-25 00:00:00.0000, 2.459140929468928E+07, -2.463451491228077E+08, -5.891573295962419E+07,
2460035.500000000, A.D. 2023-Apr-01 00:00:00.0000, 3.794542375611422E+07, -2.433650841787996E+08, -6.328825378874543E+07,
2460042.500000000, A.D. 2023-Apr-08 00:00:00.0000, 5.118744371445127E+07, -2.396669152511690E+08, -6.747401823450711E+07,
2460049.500000000, A.D. 2023-Apr-15 00:00:00.0000, 6.427819944288083E+07, -2.352605876889219E+08, -7.146040535097407E+07,
2460056.500000000, A.D. 2023-Apr-22 00:00:00.0000, 7.717889852787852E+07, -2.301586746783724E+08, -7.523550341307025E+07,
2460063.500000000, A.D. 2023-Apr-29 00:00:00.0000, 8.985142682261749E+07, -2.243763200612950E+08, -7.878817295626706E+07,
2460070.500000000, A.D. 2023-May-06 00:00:00.0000, 1.022585449024199E+08, -2.179311597944464E+08, -8.210810384522682E+07,
2460077.500000000, A.D. 2023-May-13 00:00:00.0000, 1.143640767419968E+08, -2.108432238894398E+08, -8.518586568856032E+07,
2460084.500000000, A.D. 2023-May-20 00:00:00.0000, 1.261330886789696E+08, -2.031348205887802E+08, -8.801295110920754E+07,
2460091.500000000, A.D. 2023-May-27 00:00:00.0000, 1.375320568701822E+08, -1.948304043621840E+08, -9.058181146547440E+07,
2460098.500000000, A.D. 2023-Jun-03 00:00:00.0000, 1.485290215348311E+08, -1.859564295022077E+08, -9.288588473494217E+07,
2460105.500000000, A.D. 2023-Jun-10 00:00:00.0000, 1.590937265012266E+08, -1.765411913383875E+08, -9.491961540816221E+07,
2460112.500000000, A.D. 2023-Jun-17 00:00:00.0000, 1.691977429275151E+08, -1.666146572797239E+08, -9.667846638206339E+07,
2460119.500000000, A.D. 2023-Jun-24 00:00:00.0000, 1.788145766122436E+08, -1.562082898764397E+08, -9.815892299285345E+07,
2460126.500000000, A.D. 2023-Jul-01 00:00:00.0000, 1.879197585593641E+08, -1.453548633743289E+08, -9.935848939371207E+07,
2460133.500000000, A.D. 2023-Jul-08 00:00:00.0000, 1.964909168361014E+08, -1.340882752364333E+08, -1.002756774179880E+08,
2460140.500000000, A.D. 2023-Jul-15 00:00:00.0000, 2.045078284510071E+08, -1.224433576893800E+08, -1.009099884931918E+08,
2460147.500000000, A.D. 2023-Jul-22 00:00:00.0000, 2.119524550613001E+08, -1.104556924425030E+08, -1.012618895451726E+08,
$$EOE